CAS-2T & KS-1Q          
1 41847U 16066G   20229.25289961  .00000022  00000-0  13178-4 0  9998
2 41847  98.6493 280.3523 0366457  50.8628 312.4532 14.38084822198017
NAYIF-1 (EO-88)         
1 42017U 17008BX  20229.46054564  .00001208  00000-0  48800-4 0  9994
2 42017  97.3562 296.1398 0007892 106.5360 253.6746 15.26644493194701
MAX VALIER SAT          
1 42778U 17036P   20229.40723160  .00000707  00000-0  33198-4 0  9995
2 42778  97.3004 281.3719 0012686 163.6046 196.5604 15.22710167174851
RADFXSAT (FOX-1B)       
1 43017U 17073E   20229.33232409  .00000175  00000-0  19406-4 0  9991
2 43017  97.7186 139.2554 0255880 215.0024 143.4138 14.78991696148014
FOX-1D (AO-92)          
1 43137U 18004AC  20229.48958412  .00000780  00000-0  34933-4 0  9998
2 43137  97.4424 300.2367 0008633 194.5115 165.5875 15.24220885144190
DIWATA-2B               
1 43678U 18084H   20229.51230243  .00000411  00000-0  46643-4 0  9997
2 43678  97.8906 347.9357 0009531 347.0474  13.0483 14.91648358 97974
ES'HAIL 2               
1 43700U 18090A   20229.21191873  .00000141  00000-0  00000-0 0  9995
2 43700   0.0183 114.0870 0001724  63.1103 249.9459  1.00270520  6552
FOX-1CLIFF (AO-95)      
1 43770U 18099N   20229.47862830  .00000587  00000-0  58829-4 0  9997
2 43770  97.7026 299.8034 0014428   3.2600 356.8712 14.95022760 92884
ITASAT 1                
1 43786U 18099AE  20229.46203465  .00000113  00000-0  15462-4 0  9997
2 43786  97.7039 300.2497 0014912 355.9745   4.1354 14.95354914 92907
JY1SAT (JO-97)          
1 43803U 18099AX  20229.46935928  .00000425  00000-0  43429-4 0  9993
2 43803  97.7000 300.0617 0014796 356.5406   3.5710 14.95538640 92907
PSAT2 (NO-104)          
1 44354U 19036R   20229.51380513  .00011137  00000-0  15994-3 0  9994
2 44354  28.5336 345.9137 0359833 232.8599 123.8605 15.04572738 62870
BRICSAT2 (NO-103)       
1 44355U 19036S   20229.55619239  .00018515  00000-0  25279-3 0  9993
2 44355  28.5336 333.5452 0334687 252.9808 103.3856 15.10945956 63000
JAISAT-1                
1 44419U 19038F   20229.54741441  .00000602  00000-0  37871-4 0  9996
2 44419  97.5431 190.4574 0019953 285.1565  74.7459 15.12865916 61683
DUCHIFAT-3              
1 44854U 19089C   20229.71576799  .00000336  00000-0  33505-4 0  9990
2 44854  36.9631 102.2045 0008695 200.7316 203.8912 14.99103208 37345
RS-44 & BREEZE-KM R/B   
1 44909U 19096E   20229.48152830  .00000015  00000-0  77443-5 0  9993
2 44909  82.5236 315.4307 0218485  86.2395 276.3657 12.79707614 29863
ORBITAL FACTORY 2 (OF-2)
1 45113U 19071C   20229.04987165  .00001490  00000-0  56715-4 0  9999
2 45113  51.6443  75.6171 0012286 272.4651  87.4924 15.33533421 30278
HUSKYSAT-1              
1 45119U 19071J   20229.28073329  .00000963  00000-0  40518-4 0  9997
2 45119  51.6441  74.1589 0011582 269.4884  90.4771 15.33737003 30301
